IRIDIUM 118 [+]         
1 42807U 17039E   17346.14928722  .00000084  00000-0  22865-4 0  9996
2 42807  86.3993 212.8248 0001684 100.0149 260.1237 14.34218784 24337
